{
  "type": "FeatureCollection",
  "name": "highway-shields",
  "features": [
    {
      "type": "Feature",
      "geometry": {
        "type": "Point",
        "coordinates": [11.468, 47.101]
      },
      "properties": {
        "place_name": "at-motorway, Austria",
        "zoom": 12,
        "tags": ["country-at"],
        "place_description": "uses rectangle-blue svg"
      }
    },
    {
      "type": "Feature",
      "geometry": {
        "type": "Point",
        "coordinates": [11.901, 47.266]
      },
      "properties": {
        "place_name": "at-state-b, Austria",
        "zoom": 14,
        "tags": ["country-at"],
        "place_description": "uses rectangle-blue svg"
      }
    },
    {
      "type": "Feature",
      "geometry": {
        "type": "Point",
        "coordinates": [10.23, 47.125]
      },
      "properties": {
        "place_name": "at-expressway, Austria",
        "zoom": 11,
        "tags": ["country-at"],
        "place_description": "uses rectangle-blue svg"
      }
    },
    {
      "type": "Feature",
      "geometry": {
        "type": "Point",
        "coordinates": [-46.66, -23.512]
      },
      "properties": {
        "place_name": "br-state, Brazil",
        "zoom": 13,
        "tags": ["country-br"],
        "place_description": "Uses br-state svg"
      }
    },
    {
      "type": "Feature",
      "geometry": {
        "type": "Point",
        "coordinates": [-46.326, -22.847]
      },
      "properties": {
        "place_name": "br-federal, Brazil",
        "zoom": 11,
        "tags": ["country-br"],
        "place_description": "uses br-federal svg"
      }
    },
    {
      "type": "Feature",
      "geometry": {
        "type": "Point",
        "coordinates": [8.61, 46.522]
      },
      "properties": {
        "place_name": "ch-motorway, Switzerland",
        "zoom": 13,
        "tags": ["country-ch"],
        "place_description": "uses ch-motorway svg"
      }
    },
    {
      "type": "Feature",
      "geometry": {
        "type": "Point",
        "coordinates": [8.65, 46.516]
      },
      "properties": {
        "place_name": "ch-main, Switzerland",
        "zoom": 13,
        "tags": ["country-ch"],
        "place_description": "uses rectangle-blue svg"
      }
    },
    {
      "type": "Feature",
      "geometry": {
        "type": "Point",
        "coordinates": [14.515, 50.02]
      },
      "properties": {
        "place_name": "cz-motorway, Czech Republic",
        "zoom": 13,
        "tags": ["country-cz"],
        "place_description": "uses rectangle-red svg"
      }
    },
    {
      "type": "Feature",
      "geometry": {
        "type": "Point",
        "coordinates": [14.497, 49.998]
      },
      "properties": {
        "place_name": "cz-road, Czech Republic",
        "zoom": 13,
        "tags": ["country-cz"],
        "place_description": "uses rectangle-blue svg"
      }
    },
    {
      "type": "Feature",
      "geometry": {
        "type": "Point",
        "coordinates": [13.372, 52.521]
      },
      "properties": {
        "place_name": "de-federal, Germany",
        "zoom": 16,
        "tags": ["country-de"],
        "place_description": "uses rectangle-yellow svg"
      }
    },
    {
      "type": "Feature",
      "geometry": {
        "type": "Point",
        "coordinates": [13.311, 52.532]
      },
      "properties": {
        "place_name": "de-motorway, Germany",
        "zoom": 13,
        "tags": ["country-de"],
        "place_description": "uses de-motorway svg"
      }
    },
    {
      "type": "Feature",
      "geometry": {
        "type": "Point",
        "coordinates": [9.435, 55.552]
      },
      "properties": {
        "place_name": "dk-secondary, Denmark",
        "zoom": 10,
        "tags": ["country-dk"],
        "place_description": "uses rectangle white svg"
      }
    },
    {
      "type": "Feature",
      "geometry": {
        "type": "Point",
        "coordinates": [9.301, 55.706]
      },
      "properties": {
        "place_name": "dk-primary, Denmark",
        "zoom": 11,
        "tags": ["country-dk"],
        "place_description": "uses rectangle-yellow svg"
      }
    },
    {
      "type": "Feature",
      "geometry": {
        "type": "Point",
        "coordinates": [26.275, 66.384]
      },
      "properties": {
        "place_name": "fi-trunk, Finland",
        "zoom": 8,
        "tags": ["country-fi"],
        "place_description": "uses rectangle-yellow svg"
      }
    },
    {
      "type": "Feature",
      "geometry": {
        "type": "Point",
        "coordinates": [25.024, 60.344]
      },
      "properties": {
        "place_name": "fi-regional, Finland",
        "zoom": 9,
        "tags": ["country-fi"],
        "place_description": "uses rectangle-white svg"
      }
    },
    {
      "type": "Feature",
      "geometry": {
        "type": "Point",
        "coordinates": [24.849, 60.313]
      },
      "properties": {
        "place_name": "fi-main, Finland",
        "zoom": 13,
        "tags": ["country-fi"],
        "place_description": "uses rectangle-red svg"
      }
    },
    {
      "type": "Feature",
      "geometry": {
        "type": "Point",
        "coordinates": [22.972, 40.646]
      },
      "properties": {
        "place_name": "gr-motorway, Greece",
        "zoom": 13,
        "tags": ["country-gr"],
        "place_description": "uses gr-motorway svg"
      }
    },
    {
      "type": "Feature",
      "geometry": {
        "type": "Point",
        "coordinates": [22.941, 40.683]
      },
      "properties": {
        "place_name": "gr-national, Greece",
        "zoom": 14,
        "tags": ["country-gr"],
        "place_description": "uses rectangle-blue svg"
      }
    },
    {
      "type": "Feature",
      "geometry": {
        "type": "Point",
        "coordinates": [15.539, 44.492]
      },
      "properties": {
        "place_name": "hr-motorway, Croatia",
        "zoom": 12,
        "tags": ["country-hr"],
        "place_description": "uses hr-motorway svg"
      }
    },
    {
      "type": "Feature",
      "geometry": {
        "type": "Point",
        "coordinates": [15.578, 44.507]
      },
      "properties": {
        "place_name": "hr-county, Croatia",
        "zoom": 12,
        "tags": ["country-hr"],
        "place_description": "uses rectangle-yellow svg"
      }
    },
    {
      "type": "Feature",
      "geometry": {
        "type": "Point",
        "coordinates": [15.519, 44.441]
      },
      "properties": {
        "place_name": "hr-state, Croatia",
        "zoom": 13,
        "tags": ["country-hr"],
        "place_description": "uses rectangle-blue svg"
      }
    },
    {
      "type": "Feature",
      "geometry": {
        "type": "Point",
        "coordinates": [19.07, 47.459]
      },
      "properties": {
        "place_name": "hu-main, Hungary",
        "zoom": 13,
        "tags": ["country-hu"],
        "place_description": "uses hu-main svg"
      }
    },
    {
      "type": "Feature",
      "geometry": {
        "type": "Point",
        "coordinates": [19.1, 47.474]
      },
      "properties": {
        "place_name": "hu-motorway, Hungary",
        "zoom": 14,
        "tags": ["country-hu"],
        "place_description": "uses hu-motorway svg"
      }
    },
    {
      "type": "Feature",
      "geometry": {
        "type": "Point",
        "coordinates": [77.64, 13.092]
      },
      "properties": {
        "place_name": "in-state, India",
        "zoom": 12,
        "tags": ["country-in"],
        "place_description": "uses in-state svg"
      }
    },
    {
      "type": "Feature",
      "geometry": {
        "type": "Point",
        "coordinates": [77.595, 13.044]
      },
      "properties": {
        "place_name": "in-national, India",
        "zoom": 12,
        "tags": ["country-in"],
        "place_description": "uses in-national svg"
      }
    },
    {
      "type": "Feature",
      "geometry": {
        "type": "Point",
        "coordinates": [-99.196, 19.316]
      },
      "properties": {
        "place_name": "mx-federal, Mexico",
        "zoom": 10,
        "tags": ["country-mx"],
        "place_description": "uses mx-federal svg"
      }
    },
    {
      "type": "Feature",
      "geometry": {
        "type": "Point",
        "coordinates": [-102.364, 19.876]
      },
      "properties": {
        "place_name": "mx-state, Mexico",
        "zoom": 12,
        "tags": ["country-mx"],
        "place_description": "uses mx-state svg"
      }
    },
    {
      "type": "Feature",
      "geometry": {
        "type": "Point",
        "coordinates": [172.669, -43.555]
      },
      "properties": {
        "place_name": "nz-state, New Zealand",
        "zoom": 13,
        "tags": ["country-nz"],
        "place_description": "uses nz-state svg"
      }
    },
    {
      "type": "Feature",
      "geometry": {
        "type": "Point",
        "coordinates": [-76.95, -12.079]
      },
      "properties": {
        "place_name": "pe-regional, Peru",
        "zoom": 12,
        "tags": ["country-pe"],
        "place_description": "uses pe-regional svg"
      }
    },
    {
      "type": "Feature",
      "geometry": {
        "type": "Point",
        "coordinates": [-76.981, -12.024]
      },
      "properties": {
        "place_name": "pe-national, Peru",
        "zoom": 12,
        "tags": ["country-pe"],
        "place_description": "uses pe-national svg"
      }
    },
    {
      "type": "Feature",
      "geometry": {
        "type": "Point",
        "coordinates": [19.305, 51.677]
      },
      "properties": {
        "place_name": "pl-expressway, Poland",
        "zoom": 12,
        "tags": ["country-pl"],
        "place_description": "uses rectangle-red svg"
      }
    },
    {
      "type": "Feature",
      "geometry": {
        "type": "Point",
        "coordinates": [19.615, 51.486]
      },
      "properties": {
        "place_name": "pl-motorway",
        "zoom": 12,
        "tags": ["country-pl"],
        "place_description": "uses rectangle-red svg"
      }
    },
    {
      "type": "Feature",
      "geometry": {
        "type": "Point",
        "coordinates": [19.889, 51.354]
      },
      "properties": {
        "place_name": "pl-national, Poland",
        "zoom": 13,
        "tags": ["country-pl"],
        "place_description": "uses rectangle-red svg"
      }
    },
    {
      "type": "Feature",
      "geometry": {
        "type": "Point",
        "coordinates": [19.651, 51.449]
      },
      "properties": {
        "place_name": "pl-voivodeship, Poland",
        "zoom": 9,
        "tags": ["country-pl"],
        "place_description": "uses rectangle-yellow svg"
      }
    },
    {
      "type": "Feature",
      "geometry": {
        "type": "Point",
        "coordinates": [26.144, 44.514]
      },
      "properties": {
        "place_name": "ro-county, Romania",
        "zoom": 13,
        "tags": ["country-ro"],
        "place_description": "uses ro-county svg"
      }
    },
    {
      "type": "Feature",
      "geometry": {
        "type": "Point",
        "coordinates": [26.223, 44.605]
      },
      "properties": {
        "place_name": "ro-communal, Romania",
        "zoom": 13,
        "tags": ["country-ro"],
        "place_description": "uses ro-communal svg"
      }
    },
    {
      "type": "Feature",
      "geometry": {
        "type": "Point",
        "coordinates": [25.206, 45.175]
      },
      "properties": {
        "place_name": "ro-national, Romania",
        "zoom": 15,
        "tags": ["country-ro"],
        "place_description": "uses ro-national svg"
      }
    },
    {
      "type": "Feature",
      "geometry": {
        "type": "Point",
        "coordinates": [25.019, 44.775]
      },
      "properties": {
        "place_name": "ro-motorway, Romania",
        "zoom": 14,
        "tags": ["country-ro"],
        "place_description": "uses rectangle-green svg"
      }
    },
    {
      "type": "Feature",
      "geometry": {
        "type": "Point",
        "coordinates": [20.538, 44.761]
      },
      "properties": {
        "place_name": "rs-motorway, Serbia",
        "zoom": 13,
        "tags": ["country-rs"],
        "place_description": "uses rectangle-green svg"
      }
    },
    {
      "type": "Feature",
      "geometry": {
        "type": "Point",
        "coordinates": [20.739, 44.168]
      },
      "properties": {
        "place_name": "rs-state-1b, Serbia",
        "zoom": 13,
        "tags": ["country-rs"],
        "place_description": "uses rectangle-blue svg"
      }
    },
    {
      "type": "Feature",
      "geometry": {
        "type": "Point",
        "coordinates": [20.817, 44.267]
      },
      "properties": {
        "place_name": "rs-state-2a, Serbia",
        "zoom": 11,
        "tags": ["country-rs"],
        "place_description": "uses rectangle-orange svg"
      }
    },
    {
      "type": "Feature",
      "geometry": {
        "type": "Point",
        "coordinates": [20.782, 44.169]
      },
      "properties": {
        "place_name": "rs-state-2b, Serbia",
        "zoom": 14,
        "tags": ["country-rs"],
        "place_description": "uses rectangle-yellow svg"
      }
    },
    {
      "type": "Feature",
      "geometry": {
        "type": "Point",
        "coordinates": [13.988, 56.551]
      },
      "properties": {
        "place_name": "se-main, Sweden",
        "zoom": 10,
        "tags": ["country-se"],
        "place_description": "uses rectangle-blue svg"
      }
    },
    {
      "type": "Feature",
      "geometry": {
        "type": "Point",
        "coordinates": [14.763, 46.125]
      },
      "properties": {
        "place_name": "si-main, Slovenia",
        "zoom": 13,
        "tags": ["country-si"],
        "place_description": "uses rectangle-yellow svg"
      }
    },
    {
      "type": "Feature",
      "geometry": {
        "type": "Point",
        "coordinates": [14.747, 46.162]
      },
      "properties": {
        "place_name": "si-motorway, Slovenia",
        "zoom": 15,
        "tags": ["country-si"],
        "place_description": "uses si-motorway svg"
      }
    },
    {
      "type": "Feature",
      "geometry": {
        "type": "Point",
        "coordinates": [14.516, 46.083]
      },
      "properties": {
        "place_name": "si-expressway, Slovenia",
        "zoom": 14,
        "tags": ["country-si"],
        "place_description": "uses rectangle-blue svg"
      }
    },
    {
      "type": "Feature",
      "geometry": {
        "type": "Point",
        "coordinates": [19.336, 48.551]
      },
      "properties": {
        "place_name": "sk-highway, Slovakia",
        "zoom": 13,
        "tags": ["country-sk"],
        "place_description": "uses rectangle-red svg"
      }
    },
    {
      "type": "Feature",
      "geometry": {
        "type": "Point",
        "coordinates": [19.308, 48.529]
      },
      "properties": {
        "place_name": "sk-road, Slovakia",
        "zoom": 15,
        "tags": ["country-sk"],
        "place_description": "uses rectangle-blue svg"
      }
    },
    {
      "type": "Feature",
      "geometry": {
        "type": "Point",
        "coordinates": [-77.094, 38.835]
      },
      "properties": {
        "place_name": "us-interstate, United States",
        "zoom": 14,
        "tags": ["country-us"],
        "place_description": "uses us-interstate svg"
      }
    },
    {
      "type": "Feature",
      "geometry": {
        "type": "Point",
        "coordinates": [-79.321, 40.11]
      },
      "properties": {
        "place_name": "us-interstate-duplex, United States",
        "zoom": 12,
        "tags": ["country-us"],
        "place_description": "uses us-interstate-duplex svg"
      }
    },
    {
      "type": "Feature",
      "geometry": {
        "type": "Point",
        "coordinates": [-85.003, 41.912]
      },
      "properties": {
        "place_name": "us-interstate-business, United States",
        "zoom": 13,
        "tags": ["country-us"],
        "place_description": "uses us-interstate-business svg"
      }
    },
    {
      "type": "Feature",
      "geometry": {
        "type": "Point",
        "coordinates": [-76.808, 38.77]
      },
      "properties": {
        "place_name": "us-highway, United States",
        "zoom": 13,
        "tags": ["country-us"],
        "place_description": "uses us-highway svg"
      }
    },
    {
      "type": "Feature",
      "geometry": {
        "type": "Point",
        "coordinates": [-84.267, 35.019]
      },
      "properties": {
        "place_name": "us-highway-duplex, United States",
        "zoom": 13,
        "tags": ["country-us"],
        "place_description": "uses us-highway-duplex svg"
      }
    },
    {
      "type": "Feature",
      "geometry": {
        "type": "Point",
        "coordinates": [-122.72, 45.578]
      },
      "properties": {
        "place_name": "us-highway-bypass, United States",
        "zoom": 14,
        "tags": ["country-us"],
        "place_description": "uses us-highway-bypass svg"
      }
    },
    {
      "type": "Feature",
      "geometry": {
        "type": "Point",
        "coordinates": [-77.943, 34.239]
      },
      "properties": {
        "place_name": "us-highway-business, United States",
        "zoom": 14,
        "tags": ["country-us"],
        "place_description": "uses us-highway-business svg"
      }
    },
    {
      "type": "Feature",
      "geometry": {
        "type": "Point",
        "coordinates": [-74.011, 40.73]
      },
      "properties": {
        "place_name": "us-state, United States",
        "zoom": 15,
        "tags": ["country-us"],
        "place_description": "uses circle-white svg"
      }
    },
    {
      "type": "Feature",
      "geometry": {
        "type": "Point",
        "coordinates": [18.404, -33.907]
      },
      "properties": {
        "place_name": "za-metropolitan, South Africa",
        "zoom": 14,
        "tags": ["country-za"],
        "place_description": "uses rectangle-green svg"
      }
    },
    {
      "type": "Feature",
      "geometry": {
        "type": "Point",
        "coordinates": [18.484, -33.922]
      },
      "properties": {
        "place_name": "za-regional, South Africa",
        "zoom": 15,
        "tags": ["country-za"],
        "place_description": "uses rectangle-green svg"
      }
    },
    {
      "type": "Feature",
      "geometry": {
        "type": "Point",
        "coordinates": [18.498, -33.911]
      },
      "properties": {
        "place_name": "za-national, South Africa",
        "zoom": 16,
        "tags": ["country-za"],
        "place_description": "uses za-national svg"
      }
    },
    {
      "type": "Feature",
      "geometry": {
        "type": "Point",
        "coordinates": [18.467, -33.913]
      },
      "properties": {
        "place_name": "za-provincial, South Africa",
        "zoom": 14,
        "tags": ["country-za"],
        "place_description": "uses za-provincial svg"
      }
    },
    {
      "type": "Feature",
      "geometry": {
        "type": "Point",
        "coordinates": [14.952, 63.012]
      },
      "properties": {
        "place_name": "e-road, Sweden",
        "zoom": 12,
        "place_description": "uses rectangle-green svg\n(this shield exists in multiple countries: https://en.wikipedia.org/wiki/International_E-road_network"
      }
    },
    {
      "type": "Feature",
      "geometry": {
        "type": "Point",
        "coordinates": [-107.54, 45.61]
      },
      "properties": {
        "place_name": "us-bia, United States",
        "zoom": 12,
        "tags": ["country-us"],
        "place_description": "uses us-bia svg"
      }
    },
    {
      "type": "Feature",
      "geometry": {
        "type": "Point",
        "coordinates": [-73.9, 40.771]
      },
      "properties": {
        "place_name": "us-interstate-truck, United States",
        "zoom": 13,
        "tags": ["country-us"],
        "place_description": "uses us-interstate-truck svg"
      }
    },
    {
      "type": "Feature",
      "geometry": {
        "type": "Point",
        "coordinates": [-96.093, 35.969]
      },
      "properties": {
        "place_name": "us-highway-alternate, United States",
        "zoom": 14,
        "tags": ["country-us"],
        "place_description": "uses us-highway-alternate svg"
      }
    },
    {
      "type": "Feature",
      "geometry": {
        "type": "Point",
        "coordinates": [-76.651, 39.309]
      },
      "properties": {
        "place_name": "us-highway-truck, United States",
        "zoom": 16,
        "tags": ["country-us"],
        "place_description": "uses us-highway-truck svg"
      }
    }
  ]
}
