{
  "type": "FeatureCollection",
  "name": "road-network",
  "features": [
    {
      "type": "Feature",
      "geometry": {
        "type": "Point",
        "coordinates": [-3.704, 40.395]
      },
      "properties": {
        "place_name": "Madrid, Spain",
        "zoom": 17,
        "place_description": "Tunnels along Madrid's M-30 motorway."
      }
    },
    {
      "type": "Feature",
      "geometry": {
        "type": "Point",
        "coordinates": [103.761, 1.404]
      },
      "properties": {
        "place_name": "Singapore",
        "zoom": 10,
        "place_description": "Expressway system in Singapore."
      }
    },
    {
      "type": "Feature",
      "geometry": {
        "type": "Point",
        "coordinates": [-75.161, 39.917]
      },
      "properties": {
        "place_name": "Philadelphia, Pennsylvania",
        "zoom": 15,
        "place_description": "City grid of Philadelphia."
      }
    },
    {
      "type": "Feature",
      "geometry": {
        "type": "Point",
        "coordinates": [-99.12, 19.458]
      },
      "properties": {
        "place_name": "Mexico City, Mexico",
        "zoom": 11,
        "place_description": "Motorways and arterial roads linking neighborhoods in Mexico City."
      }
    },
    {
      "type": "Feature",
      "geometry": {
        "type": "Point",
        "coordinates": [12.591, 55.672]
      },
      "properties": {
        "place_name": "Copenhagen, Denmark",
        "zoom": 13,
        "place_description": "Bridges, ferry lines, and streets weaving through the inner harbor."
      }
    },
    {
      "type": "Feature",
      "geometry": {
        "type": "Point",
        "coordinates": [-84.258, 33.891]
      },
      "properties": {
        "place_name": "Atlanta, Georgia",
        "zoom": 16,
        "place_description": "A multi-level stack interchange known as Spaghetti Junction."
      }
    },
    {
      "type": "Feature",
      "geometry": {
        "type": "Point",
        "coordinates": [116.78, 39.533]
      },
      "properties": {
        "place_name": "Northeastern China",
        "zoom": 8,
        "place_description": "Ring roads around Beijing and Tianjin."
      }
    },
    {
      "type": "Feature",
      "geometry": {
        "type": "Point",
        "coordinates": [-122.397, 37.793]
      },
      "properties": {
        "place_name": "San Francisco, California",
        "zoom": 18,
        "place_description": "Rail and rail crossings intersecting with roads."
      }
    },
    {
      "type": "Feature",
      "geometry": {
        "type": "Point",
        "coordinates": [79.086, 21.14]
      },
      "properties": {
        "place_name": "Nagpur, India",
        "zoom": 11,
        "place_description": "The dense street network in Nagpur."
      }
    },
    {
      "type": "Feature",
      "geometry": {
        "type": "Point",
        "coordinates": [-71.065, 42.355]
      },
      "properties": {
        "place_name": "Boston, Massachusetts",
        "zoom": 16,
        "place_description": "Pedestrian paths crossing through Boston Common."
      }
    },
    {
      "type": "Feature",
      "geometry": {
        "type": "Point",
        "coordinates": [-75.584, 40.138]
      },
      "properties": {
        "place_name": "Northeastern United States",
        "zoom": 6,
        "place_description": "Roads linking cities along the northeast coast."
      }
    },
    {
      "type": "Feature",
      "geometry": {
        "type": "Point",
        "coordinates": [-0.087, 51.508]
      },
      "properties": {
        "place_name": "London, England",
        "zoom": 15,
        "place_description": "Ferry lines and bridges along the Thames River."
      }
    },
    {
      "type": "Feature",
      "geometry": {
        "type": "Point",
        "coordinates": [139.758, 35.675]
      },
      "properties": {
        "place_name": "Tokyo, Japan",
        "zoom": 12,
        "place_description": "The large network of roads in Tokyo."
      }
    },
    {
      "type": "Feature",
      "geometry": {
        "type": "Point",
        "coordinates": [18.555, -33.912]
      },
      "properties": {
        "place_name": "Cape Town, South Africa",
        "zoom": 14,
        "place_description": "Rail lines through the city grid."
      }
    }
  ]
}
